NORAD_CAT_ID,OBJECT_NAME,OBJECT_TYPE,EPOCH,MEAN_MOTION,ECCENTRICITY,INCLINATION,RA_OF_ASC_NODE,ARG_OF_PERICENTER,MEAN_ANOMALY,BSTAR,MEAN_MOTION_DOT,MEAN_MOTION_DDOT,TLE_LINE0,TLE_LINE1,TLE_LINE2,SEMIMAJOR_AXIS,PERIOD,APOGEE,PERIGEE,DECAYED
56796.0,STARLINK-6049,PAYLOAD,2024-05-28 05:16:48,14.98331922,0.0003067,69.9989,184.6223,267.5218,92.559,3.6157e-05,3.38e-06,0.0,0 STARLINK-6049,1 56796U 23078AF  24149.22000084  .00000338  00000-0  36157-4 0  9999,2 56796  69.9989 184.6223 0003067 267.5218  92.5590 14.98331922 55505,6950.187,96.107,574.184,569.92,0.0
56796.0,STARLINK-6049,PAYLOAD,2024-05-28 10:05:12,14.98331324,0.0003094,69.9989,184.1173,267.7256,92.3549,2.3396e-05,1.86e-06,0.0,0 STARLINK-6049,1 56796U 23078AF  24149.42028122  .00000186  00000-0  23396-4 0  9996,2 56796  69.9989 184.1173 0003094 267.7256  92.3549 14.98331324 55270,6950.189,96.107,574.204,569.903,0.0
56796.0,STARLINK-6049,PAYLOAD,2024-05-29 05:18:49,14.98329589,0.0003144,69.9987,182.0975,266.9105,93.1694,4.4071e-05,4.33e-06,0.0,0 STARLINK-6049,1 56796U 23078AF  24150.22140101  .00000433  00000-0  44071-4 0  9996,2 56796  69.9987 182.0975 0003144 266.9105  93.1694 14.98329589 55657,6950.194,96.107,574.244,569.874,0.0
56796.0,STARLINK-6049,PAYLOAD,2024-05-29 11:43:21,14.98329963,0.0003209,69.9985,181.424,269.6153,90.4638,4.1293e-05,4e-06,0.0,0 STARLINK-6049,1 56796U 23078AF  24150.48844132  .00000400  00000-0  41293-4 0  9996,2 56796  69.9985 181.4240 0003209 269.6153  90.4638 14.98329963 55438,6950.193,96.107,574.288,569.828,0.0
56796.0,STARLINK-6049,PAYLOAD,2024-05-30 11:45:21,14.98334572,0.0003357,69.9978,178.8988,271.5639,88.5135,7.5362e-05,8.06e-06,0.0,0 STARLINK-6049,1 56796U 23078AF  24151.48983755  .00000806  00000-0  75362-4 0  9996,2 56796  69.9978 178.8988 0003357 271.5639  88.5135 14.98334572 55841,6950.179,96.107,574.377,569.711,0.0
56796.0,STARLINK-6049,PAYLOAD,2024-05-31 05:22:47,14.98363171,0.0003059,69.9981,177.0473,264.9001,95.1809,0.00035405,4.138e-05,0.0,0 STARLINK-6049,1 56796U 23078AF  24152.22416214  .00004138  00000-0  35405-3 0  9995,2 56796  69.9981 177.0473 0003059 264.9001  95.1809 14.98363171 55954,6950.09,96.105,574.081,569.829,0.0
56796.0,STARLINK-6049,PAYLOAD,2024-05-31 11:47:22,14.98329724,0.0003095,69.9981,176.3748,270.7894,89.291,-1.8933e-05,-3.19e-06,0.0,0 STARLINK-6049,1 56796U 23078AF  24152.49123225 -.00000319  00000-0 -18933-4 0  9998,2 56796  69.9981 176.3748 0003095 270.7894  89.2910 14.98329724 55993,6950.194,96.107,574.21,569.908,0.0
56796.0,STARLINK-6049,PAYLOAD,2024-06-01 11:49:23,14.98328575,0.0003033,69.9981,173.8487,272.3446,87.7366,-4.2569e-05,-6.01e-06,0.0,0 STARLINK-6049,1 56796U 23078AF  24153.49263233 -.00000601  00000-0 -42569-4 0  9999,2 56796  69.9981 173.8487 0003033 272.3446  87.7366 14.98328575 56147,6950.197,96.107,574.17,569.954,0.0
56796.0,STARLINK-6049,PAYLOAD,2024-06-02 10:15:16,14.98341031,0.0002989,69.9981,171.4925,273.1171,86.9646,-0.00037682,-4.588e-05,0.0,0 STARLINK-6049,1 56796U 23078AF  24154.42726947 -.00004588  00000-0 -37682-3 0  9996,2 56796  69.9981 171.4925 0002989 273.1171  86.9646 14.98341031 56280,6950.159,96.106,574.101,569.946,0.0
56796.0,STARLINK-6049,PAYLOAD,2024-06-03 03:52:45,14.98322587,0.0002972,69.9982,169.6408,271.5081,88.5737,8.235e-05,8.9e-06,0.0,0 STARLINK-6049,1 56796U 23078AF  24155.16163642  .00000890  00000-0  82350-4 0  9998,2 56796  69.9982 169.6408 0002972 271.5081  88.5737 14.98322587 56396,6950.216,96.107,574.146,570.015,0.0
56796.0,STARLINK-6049,PAYLOAD,2024-06-03 10:17:17,14.9832283,0.0002977,69.9983,168.9675,271.465,88.6168,8.118e-05,8.76e-06,0.0,0 STARLINK-6049,1 56796U 23078AF  24155.42867794  .00000876  00000-0  81180-4 0  9990,2 56796  69.9983 168.9675 0002977 271.4650  88.6168 14.98322830 56177,6950.215,96.107,574.149,570.011,0.0
56796.0,STARLINK-6049,PAYLOAD,2024-06-03 18:17:58,14.98325351,0.0003011,69.9983,168.1259,271.842,88.2395,0.00010707,1.185e-05,0.0,0 STARLINK-6049,1 56796U 23078AF  24155.76247747  .00001185  00000-0  10707-3 0  9997,2 56796  69.9983 168.1259 0003011 271.8420  88.2395 14.98325351 56221,6950.207,96.107,574.165,569.98,0.0
56796.0,STARLINK-6049,PAYLOAD,2024-06-04 03:54:46,14.98326457,0.0003052,69.9981,167.1157,271.4667,88.6142,0.00014151,1.596e-05,0.0,0 STARLINK-6049,1 56796U 23078AF  24156.16303770  .00001596  00000-0  14151-3 0  9994,2 56796  69.9981 167.1157 0003052 271.4667  88.6142 14.98326457 56546,6950.204,96.107,574.19,569.948,0.0
56796.0,STARLINK-6049,PAYLOAD,2024-06-04 10:19:18,14.98328978,0.0003044,69.9981,166.4422,271.2294,88.8516,0.00015847,1.798e-05,0.0,0 STARLINK-6049,1 56796U 23078AF  24156.43007679  .00001798  00000-0  15847-3 0  9990,2 56796  69.9981 166.4422 0003044 271.2294  88.8516 14.98328978 56321,6950.196,96.107,574.177,569.945,0.0
56796.0,STARLINK-6049,PAYLOAD,2024-06-04 18:19:58,14.98330698,0.0003033,69.9982,165.6007,271.1155,88.9656,0.00014812,1.675e-05,0.0,0 STARLINK-6049,1 56796U 23078AF  24156.76387678  .00001675  00000-0  14812-3 0  9991,2 56796  69.9982 165.6007 0003033 271.1155  88.9656 14.98330698 56378,6950.191,96.107,574.164,569.948,0.0
56796.0,STARLINK-6049,PAYLOAD,2024-06-05 03:56:47,14.98333393,0.0003044,69.998,164.5907,271.0199,89.0611,0.00014416,1.628e-05,0.0,0 STARLINK-6049,1 56796U 23078AF  24157.16443521  .00001628  00000-0  14416-3 0  9994,2 56796  69.9980 164.5907 0003044 271.0199  89.0611 14.98333393 56695,6950.182,96.107,574.163,569.932,0.0
56796.0,STARLINK-6049,PAYLOAD,2024-06-05 10:21:19,14.98334259,0.0003049,69.9981,163.9175,271.1825,88.8985,0.00014691,1.66e-05,0.0,0 STARLINK-6049,1 56796U 23078AF  24157.43147449  .00001660  00000-0  14691-3 0  9995,2 56796  69.9981 163.9175 0003049 271.1825  88.8985 14.98334259 56477,6950.18,96.107,574.164,569.926,0.0
56796.0,STARLINK-6049,PAYLOAD,2024-06-05 18:21:59,14.98332327,0.0003131,69.9981,163.0759,261.8948,98.1856,0.0001315,1.476e-05,0.0,0 STARLINK-6049,1 56796U 23078AF  24157.76527517  .00001476  00000-0  13150-3 0  9993,2 56796  69.9981 163.0759 0003131 261.8948  98.1856 14.98332327 56521,6950.186,96.107,574.227,569.875,0.0
56796.0,STARLINK-6049,PAYLOAD,2024-06-06 03:58:48,14.98330894,0.0003093,69.9982,162.066,270.6304,89.4501,8.2535e-05,8.92e-06,0.0,0 STARLINK-6049,1 56796U 23078AF  24158.16583713  .00000892  00000-0  82535-4 0  9993,2 56796  69.9982 162.0660 0003093 270.6304  89.4501 14.98330894 56845,6950.19,96.107,574.205,569.905,0.0
56796.0,STARLINK-6049,PAYLOAD,2024-06-06 10:23:20,14.9833175,0.0003116,69.9984,161.3926,274.059,86.0212,9.2646e-05,1.013e-05,0.0,0 STARLINK-6049,1 56796U 23078AF  24158.43287614  .00001013  00000-0  92646-4 0  9994,2 56796  69.9984 161.3926 0003116 274.0590  86.0212 14.98331750 56625,6950.187,96.107,574.218,569.887,0.0
56796.0,STARLINK-6049,PAYLOAD,2024-06-07 08:49:13,14.98333549,0.0002932,69.9987,159.0363,270.9853,89.097,4.0982e-05,3.96e-06,0.0,0 STARLINK-6049,1 56796U 23078AF  24159.36751488  .00000396  00000-0  40982-4 0  9991,2 56796  69.9987 159.0363 0002932 270.9853  89.0970 14.98333549 57026,6950.182,96.107,574.085,570.009,0.0
56796.0,STARLINK-6049,PAYLOAD,2024-06-07 16:49:53,14.9833736,0.0002987,69.9987,158.1947,270.193,89.8887,-3.2037e-05,-4.75e-06,0.0,0 STARLINK-6049,1 56796U 23078AF  24159.70131304 -.00000475  00000-0 -32037-4 0  9990,2 56796  69.9987 158.1947 0002987 270.1930  89.8887 14.98337360 56818,6950.17,96.107,574.111,569.959,0.0
56796.0,STARLINK-6049,PAYLOAD,2024-06-08 08:51:13,14.98340089,0.0002735,69.9999,156.5121,271.2084,88.8762,-6.5193e-06,-1.71e-06,0.0,0 STARLINK-6049,1 56796U 23078AF  24160.36891195 -.00000171  00000-0 -65193-5 0  9998,2 56796  69.9999 156.5121 0002735 271.2084  88.8762 14.98340089 57173,6950.162,96.106,573.928,570.126,0.0
56796.0,STARLINK-6049,PAYLOAD,2024-06-08 16:51:53,14.98367999,0.0002848,70.0006,155.6699,274.7023,85.3811,-0.00069198,-8.348e-05,0.0,0 STARLINK-6049,1 56796U 23078AF  24160.70270451 -.00008348  00000-0 -69198-3 0  9993,2 56796  70.0006 155.6699 0002848 274.7023  85.3811 14.98367999 57223,6950.075,96.105,573.92,569.961,0.0
56796.0,STARLINK-6049,PAYLOAD,2024-06-09 05:40:59,14.98329587,0.0002963,69.9993,154.3236,268.9389,91.1431,4.4831e-05,4.42e-06,0.0,0 STARLINK-6049,1 56796U 23078AF  24161.23679673  .00000442  00000-0  44831-4 0  9994,2 56796  69.9993 154.3236 0002963 268.9389  91.1431 14.98329587 57309,6950.194,96.107,574.119,570.0,0.0
56796.0,STARLINK-6049,PAYLOAD,2024-06-09 08:53:15,14.9833902,0.0003168,69.9991,153.9866,267.4923,92.5874,-0.00015677,-1.964e-05,0.0,0 STARLINK-6049,1 56796U 23078AF  24161.37031533 -.00001964  00000-0 -15677-3 0  9993,2 56796  69.9991 153.9866 0003168 267.4923  92.5874 14.98339020 57069,6950.165,96.106,574.232,569.828,0.0
56796.0,STARLINK-6049,PAYLOAD,2024-06-09 16:53:55,14.98331206,0.000301,69.9991,153.1452,269.5228,90.5586,5.4357e-05,5.56e-06,0.0,0 STARLINK-6049,1 56796U 23078AF  24161.70411561  .00000556  00000-0  54357-4 0  9996,2 56796  69.9991 153.1452 0003010 269.5228  90.5586 14.98331206 57111,6950.189,96.107,574.146,569.962,0.0
56796.0,STARLINK-6049,PAYLOAD,2024-06-10 05:42:59,14.98333415,0.0003039,69.9988,151.7983,268.3084,91.7727,6.965e-05,7.38e-06,0.0,0 STARLINK-6049,1 56796U 23078AF  24162.23819349  .00000738  00000-0  69650-4 0  9995,2 56796  69.9988 151.7983 0003039 268.3084  91.7727 14.98333415 57459,6950.182,96.107,574.159,569.935,0.0
56796.0,STARLINK-6049,PAYLOAD,2024-06-10 08:55:16,14.98333369,0.0003043,69.9989,151.4616,268.374,91.707,6.692e-05,7.06e-06,0.0,0 STARLINK-6049,1 56796U 23078AF  24162.37171339  .00000706  00000-0  66920-4 0  9992,2 56796  69.9989 151.4616 0003043 268.3740  91.7070 14.98333369 57217,6950.182,96.107,574.162,569.933,0.0
56796.0,STARLINK-6049,PAYLOAD,2024-06-10 23:20:28,14.98329684,0.0003071,69.9989,149.9467,268.2252,91.8555,9.3662e-05,1.025e-05,0.0,0 STARLINK-6049,1 56796U 23078AF  24162.97255489  .00001025  00000-0  93662-4 0  9995,2 56796  69.9989 149.9467 0003071 268.2252  91.8555 14.98329684 57305,6950.194,96.107,574.193,569.924,0.0
